
# Worst residual: 31.73 km
# MJD 59000.000000 (2020 May 31  0:00)
1963-039C = Vela 1B
1 99999U 63039C   20152.49919926  .00000000  00000-0  00000-0 0  7229
2 99999 017.1685 320.8439 5538073 247.2009 029.9230 00.22050044    01

# Worst residual: 4.09 km
# MJD 59001.000000 (2020 Jun  1  0:00)
1963-039C = Vela 1B
1 99999U 63039C   20153.49919926  .00000000  00000-0  00000-0 0  7220
2 99999 017.1497 320.8258 5529093 247.2010 109.5192 00.22095464    02

# Worst residual: 5.30 km
# MJD 59002.000000 (2020 Jun  2  0:00)
1963-039C = Vela 1B
1 99999U 63039C   20154.49919926  .00000000  00000-0  00000-0 0  7221
2 99999 017.1475 320.8406 5531047 247.2197 188.9607 00.22100368    03

# Worst residual: 4.56 km
# MJD 59003.000000 (2020 Jun  3  0:00)
1963-039C = Vela 1B
1 99999U 63039C   20155.49919926  .00000000  00000-0  00000-0 0  7222
2 99999 017.1388 320.8296 5530295 247.3212 268.2955 00.22112585    08

# Worst residual: 42.19 km
# MJD 59004.000000 (2020 Jun  4  0:00)
1963-039C = Vela 1B
1 99999U 63039C   20156.49919926  .00000000  00000-0  00000-0 0  7223
2 99999 017.1301 320.8018 5538485 247.3415 347.9010 00.22063226    03

# Worst residual: 43.06 km
# MJD 59005.000000 (2020 Jun  5  0:00)
1963-039C = Vela 1B
1 99999U 63039C   20157.49919926  .00000000  00000-0  00000-0 0  7224
2 99999 017.1274 320.7590 5531527 247.6460 067.1347 00.22013221    03

# Worst residual: 12.03 km
# MJD 59006.000000 (2020 Jun  6  0:00)
1963-039C = Vela 1B
1 99999U 63039C   20158.49919926  .00000000  00000-0  00000-0 0  7225
2 99999 017.1222 320.7496 5522085 247.4577 147.0860 00.22091299    06

# Worst residual: 3.55 km
# MJD 59007.000000 (2020 Jun  7  0:00)
1963-039C = Vela 1B
1 99999U 63039C   20159.49919926  .00000000  00000-0  00000-0 0  7226
2 99999 017.1146 320.7433 5521888 247.4598 226.6343 00.22094758    08

# Worst residual: 16.20 km
# MJD 59008.000000 (2020 Jun  8  0:00)
1963-039C = Vela 1B
1 99999U 63039C   20160.49919926  .00000000  00000-0  00000-0 0  7228
2 99999 017.1051 320.7375 5516046 247.5771 305.9098 00.22125030    08

# Worst residual: 16.56 km
# MJD 59009.000000 (2020 Jun  9  0:00)
1963-039C = Vela 1B
1 99999U 63039C   20161.49919926  .00000000  00000-0  00000-0 0  7229
2 99999 017.0935 320.7112 5515523 247.5899 025.4520 00.22104228    07

# Worst residual: 6.41 km
# MJD 59010.000000 (2020 Jun 10  0:00)
1963-039C = Vela 1B
1 99999U 63039C   20162.49919926  .00000000  00000-0  00000-0 0  7220
2 99999 017.0683 320.6697 5521817 247.6210 104.8999 00.22097471    08

# Worst residual: 9.11 km
# MJD 59011.000000 (2020 Jun 11  0:00)
1963-039C = Vela 1B
1 99999U 63039C   20163.49919926  .00000000  00000-0  00000-0 0  7221
2 99999 017.0521 320.6216 5525960 247.5812 184.6913 00.22123085    09

# Worst residual: 12.05 km
# MJD 59012.000000 (2020 Jun 12  0:00)
1963-039C = Vela 1B
1 99999U 63039C   20164.49919926  .00000000  00000-0  00000-0 0  7222
2 99999 017.0442 320.6413 5523584 247.4601 264.5359 00.22097338    08

# Worst residual: 37.52 km
# MJD 59013.000000 (2020 Jun 13  0:00)
1963-039C = Vela 1B
1 99999U 63039C   20165.49919926  .00000000  00000-0  00000-0 0  7223
2 99999 017.0432 320.6066 5537336 247.4505 344.1926 00.22026348    02

# Worst residual: 21.42 km
# MJD 59014.000000 (2020 Jun 14  0:00)
1963-039C = Vela 1B
1 99999U 63039C   20166.49919926  .00000000  00000-0  00000-0 0  7224
2 99999 017.0320 320.6353 5525396 247.6367 063.4976 00.22055721    01

# Worst residual: 12.64 km
# MJD 59015.000000 (2020 Jun 15  0:00)
1963-039C = Vela 1B
1 99999U 63039C   20167.49919926  .00000000  00000-0  00000-0 0  7225
2 99999 016.9885 320.5179 5519055 247.7899 142.8786 00.22057840    01

# Worst residual: 17.62 km
# MJD 59016.000000 (2020 Jun 16  0:00)
1963-039C = Vela 1B
1 99999U 63039C   20168.49919926  .00000000  00000-0  00000-0 0  7226
2 99999 016.9501 320.2604 5524473 248.2085 221.8156 00.22070717    06

# Worst residual: 14.50 km
# MJD 59017.000000 (2020 Jun 17  0:00)
1963-039C = Vela 1B
1 99999U 63039C   20169.49919926  .00000000  00000-0  00000-0 0  7227
2 99999 016.9436 320.1367 5532550 248.4708 301.1226 00.22105151    08

# Worst residual: 51.59 km
# MJD 59018.000000 (2020 Jun 18  0:00)
1963-039C = Vela 1B
1 99999U 63039C   20170.49919926  .00000000  00000-0  00000-0 0  7229
2 99999 016.9378 320.1056 5554010 248.6629 020.5695 00.21994202    01

# Worst residual: 32.84 km
# MJD 59019.000000 (2020 Jun 19  0:00)
1963-039C = Vela 1B
1 99999U 63039C   20171.49919926  .00000000  00000-0  00000-0 0  7220
2 99999 016.9354 320.0849 5529102 248.6870 100.2630 00.22087464    05

# Worst residual: 11.42 km
# MJD 59020.000000 (2020 Jun 20  0:00)
1963-039C = Vela 1B
1 99999U 63039C   20172.49919926  .00000000  00000-0  00000-0 0  7221
2 99999 016.9301 320.0807 5527129 248.5168 180.3291 00.22127207    09

# Worst residual: 14.07 km
# MJD 59021.000000 (2020 Jun 21  0:00)
1963-039C = Vela 1B
1 99999U 63039C   20173.49919926  .00000000  00000-0  00000-0 0  7222
2 99999 016.9236 320.1389 5514934 248.4400 259.9004 00.22104199    00

# Worst residual: 19.55 km
# MJD 59022.000000 (2020 Jun 22  0:00)
1963-039C = Vela 1B
1 99999U 63039C   20174.49919926  .00000000  00000-0  00000-0 0  7223
2 99999 016.8995 320.2090 5495204 248.4254 339.1797 00.22156166    07

# Worst residual: 7.77 km
# MJD 59023.000000 (2020 Jun 23  0:00)
1963-039C = Vela 1B
1 99999U 63039C   20175.49919926  .00000000  00000-0  00000-0 0  7224
2 99999 016.8915 320.1507 5504914 248.5019 058.6699 00.22079565    01

# Worst residual: 4.41 km
# MJD 59024.000000 (2020 Jun 24  0:00)
1963-039C = Vela 1B
1 99999U 63039C   20176.49919926  .00000000  00000-0  00000-0 0  7225
2 99999 016.8803 320.1204 5507253 248.5114 138.1667 00.22093144    04

# Worst residual: 5.09 km
# MJD 59025.000000 (2020 Jun 25  0:00)
1963-039C = Vela 1B
1 99999U 63039C   20177.49919926  .00000000  00000-0  00000-0 0  7226
2 99999 016.8688 320.0814 5511170 248.5184 217.8065 00.22103939    02

# Worst residual: 14.35 km
# MJD 59026.000000 (2020 Jun 26  0:00)
1963-039C = Vela 1B
1 99999U 63039C   20178.49919926  .00000000  00000-0  00000-0 0  7227
2 99999 016.8605 320.0509 5515970 248.5039 297.4930 00.22084586    04

# Worst residual: 18.73 km
# MJD 59027.000000 (2020 Jun 27  0:00)
1963-039C = Vela 1B
1 99999U 63039C   20179.49919926  .00000000  00000-0  00000-0 0  7228
2 99999 016.8682 320.0475 5519847 248.6152 016.9471 00.22087644    07

# Worst residual: 1.55 km
# MJD 59028.000000 (2020 Jun 28  0:00)
1963-039C = Vela 1B
1 99999U 63039C   20180.49919926  .00000000  00000-0  00000-0 0  7220
2 99999 016.8493 320.0433 5515656 248.6523 096.4670 00.22101927    02

# Worst residual: 2.41 km
# MJD 59029.000000 (2020 Jun 29  0:00)
1963-039C = Vela 1B
1 99999U 63039C   20181.49919926  .00000000  00000-0  00000-0 0  7221
2 99999 016.8472 320.0541 5516802 248.6681 175.9479 00.22104436    06
